GLOBALSTAR M063         
1 26081U 00008A   24282.71579648 -.00000002  00000+0  11865-2 0  9995
2 26081  51.9966  53.8493 0004894 180.9510 288.5840 11.86161007127732
GLOBALSTAR M062         
1 26082U 00008B   24282.94774348 -.00000031  00000+0  47868-3 0  9990
2 26082  51.9827 114.5916 0006168 300.4375 212.3825 12.43450047127869
GLOBALSTAR M060         
1 26083U 00008C   24282.73357708  .00000048  00000+0  13783-2 0  9990
2 26083  52.0042  39.6531 0002819 344.6015 168.3389 12.17646397121732
GLOBALSTAR M064         
1 26084U 00008D   24282.85322021 -.00000074  00000+0  13794-3 0  9997
2 26084  52.0014 155.2832 0001060 330.2967  29.7805 11.88523597137211
GLOBALSTAR M065         
1 31571U 07020A   24283.22688748 -.00000019  00000+0  47640-3 0  9994
2 31571  51.9884 270.0970 0010206 108.7329 265.3654 12.61981038802020
GLOBALSTAR M069         
1 31573U 07020C   24283.23789993 -.00000023  00000+0  46646-3 0  9991
2 31573  51.9940 226.4056 0000869  18.5467 128.8484 12.58767198802771
GLOBALSTAR M072         
1 31574U 07020D   24282.82983712 -.00000037  00000+0  37412-3 0  9997
2 31574  52.0097 323.0350 0000286 159.4919  12.4430 12.62265848801079
GLOBALSTAR M071         
1 31576U 07020F   24282.82956509 -.00000037  00000+0  37464-3 0  9990
2 31576  52.0057 232.2449 0000949 340.3651  53.0402 12.62258946463993
